NORAD_CAT_ID,OBJECT_NAME,OBJECT_TYPE,EPOCH,MEAN_MOTION,ECCENTRICITY,INCLINATION,RA_OF_ASC_NODE,ARG_OF_PERICENTER,MEAN_ANOMALY,BSTAR,MEAN_MOTION_DOT,MEAN_MOTION_DDOT,TLE_LINE0,TLE_LINE1,TLE_LINE2,SEMIMAJOR_AXIS,PERIOD,APOGEE,PERIGEE,DECAYED
54201.0,STARLINK-5199,PAYLOAD,2024-04-11 13:13:49,15.08840501,0.000115,53.2175,243.69,90.358,269.7544,0.00012571,1.713e-05,0.0,0 STARLINK-5199,1 54201U 22141AW  24102.55127174  .00001713  00000-0  12571-3 0  9994,2 54201  53.2175 243.6900 0001150  90.3580 269.7544 15.08840501 80987,6917.879,95.438,540.539,538.948,0.0
54201.0,STARLINK-5199,PAYLOAD,2024-04-11 14:49:12,15.08842488,0.00012,53.2163,243.3924,91.0706,269.0424,0.00013942,1.932e-05,0.0,0 STARLINK-5199,1 54201U 22141AW  24102.61751023  .00001932  00000-0  13942-3 0  9993,2 54201  53.2163 243.3924 0001200  91.0706 269.0424 15.08842488 80763,6917.873,95.437,540.568,538.908,0.0
54201.0,STARLINK-5199,PAYLOAD,2024-04-11 16:24:35,15.0884619,0.0001214,53.2172,243.0967,95.1364,264.9767,0.000177,2.531e-05,0.0,0 STARLINK-5199,1 54201U 22141AW  24102.68374701  .00002531  00000-0  17700-3 0  9996,2 54201  53.2172 243.0967 0001214  95.1364 264.9767 15.08846190 80776,6917.861,95.437,540.566,538.887,0.0
54201.0,STARLINK-5199,PAYLOAD,2024-04-12 13:04:37,15.08834718,0.0001388,53.2169,239.2308,91.5444,268.5707,-2.2132e-05,-6.4e-06,0.0,0 STARLINK-5199,1 54201U 22141AW  24103.54487522 -.00000640  00000-0 -22132-4 0  9995,2 54201  53.2169 239.2308 0001388  91.5444 268.5707 15.08834718 81137,6917.897,95.438,540.722,538.801,0.0
54201.0,STARLINK-5199,PAYLOAD,2024-04-12 14:40:00,15.0883588,0.0001824,53.2192,238.9374,104.3796,255.7398,-8.2171e-06,-4.19e-06,0.0,0 STARLINK-5199,1 54201U 22141AW  24103.61111517 -.00000419  00000-0 -82171-5 0  9995,2 54201  53.2192 238.9374 0001824 104.3796 255.7398 15.08835880 80910,6917.893,95.438,541.02,538.496,0.0
54201.0,STARLINK-5199,PAYLOAD,2024-04-13 14:30:47,15.08840553,0.0001417,53.2181,234.4744,98.1075,262.0078,-2.6261e-06,-3.3e-06,0.0,0 STARLINK-5199,1 54201U 22141AW  24104.60471957 -.00000330  00000-0 -26261-5 0  9992,2 54201  53.2181 234.4744 0001417  98.1075 262.0078 15.08840553 81064,6917.879,95.438,540.724,538.763,0.0
54201.0,STARLINK-5199,PAYLOAD,2024-04-13 16:06:10,15.08844169,0.0001356,53.218,234.1766,92.7279,267.3868,3.025e-05,1.94e-06,0.0,0 STARLINK-5199,1 54201U 22141AW  24104.67095675  .00000194  00000-0  30250-4 0  9996,2 54201  53.2180 234.1766 0001356  92.7279 267.3868 15.08844169 81301,6917.868,95.437,540.671,538.795,0.0
54201.0,STARLINK-5199,PAYLOAD,2024-04-14 15:56:57,15.08849582,0.0001811,53.2177,229.7154,60.8657,299.2517,0.00029734,4.448e-05,0.0,0 STARLINK-5199,1 54201U 22141AW  24105.66455614  .00004448  00000-0  29734-3 0  9999,2 54201  53.2177 229.7154 0001811  60.8657 299.2517 15.08849582 81220,6917.851,95.437,540.969,538.463,0.0
54201.0,STARLINK-5199,PAYLOAD,2024-04-15 12:36:58,15.08846917,0.0001547,53.2181,225.8514,70.7582,289.3578,0.00012806,1.751e-05,0.0,0 STARLINK-5199,1 54201U 22141AW  24106.52567541  .00001751  00000-0  12806-3 0  9994,2 54201  53.2181 225.8514 0001547  70.7582 289.3578 15.08846917 81580,6917.859,95.437,540.794,538.654,0.0
54201.0,STARLINK-5199,PAYLOAD,2024-04-15 14:12:21,15.08848772,0.0001909,53.2172,225.5543,60.8254,299.2929,0.00017121,2.438e-05,0.0,0 STARLINK-5199,1 54201U 22141AW  24106.59191567  .00002438  00000-0  17121-3 0  9990,2 54201  53.2172 225.5543 0001909  60.8254 299.2929 15.08848772 81364,6917.854,95.437,541.039,538.398,0.0
54201.0,STARLINK-5199,PAYLOAD,2024-04-16 14:03:07,15.08861405,0.0001277,53.218,221.0891,84.1203,275.9935,0.00018359,2.637e-05,0.0,0 STARLINK-5199,1 54201U 22141AW  24107.58550424  .00002637  00000-0  18359-3 0  9996,2 54201  53.2180 221.0891 0001277  84.1203 275.9935 15.08861405 81514,6917.815,95.436,540.563,538.797,0.0
54201.0,STARLINK-5199,PAYLOAD,2024-04-17 12:18:33,15.08827033,0.0001448,53.2151,216.9257,85.7318,274.384,-6.7079e-05,-1.355e-05,0.0,0 STARLINK-5199,1 54201U 22141AW  24108.51288460 -.00001355  00000-0 -67079-4 0  9990,2 54201  53.2151 216.9257 0001448  85.7318 274.3840 15.08827033 81882,6917.92,95.438,540.787,538.783,0.0
54201.0,STARLINK-5199,PAYLOAD,2024-04-18 12:09:20,15.08842226,0.0001563,53.2159,212.4657,83.4253,276.6917,0.00033887,5.11e-05,0.0,0 STARLINK-5199,1 54201U 22141AW  24109.50648692  .00005110  00000-0  33887-3 0  9997,2 54201  53.2159 212.4657 0001563  83.4253 276.6917 15.08842226 82035,6917.874,95.437,540.82,538.657,0.0
54201.0,STARLINK-5199,PAYLOAD,2024-04-18 13:44:43,15.08847105,0.0001585,53.2172,212.1681,92.3601,267.7572,0.0005246,8.072e-05,0.0,0 STARLINK-5199,1 54201U 22141AW  24109.57272582  .00008072  00000-0  52460-3 0  9993,2 54201  53.2172 212.1681 0001585  92.3601 267.7572 15.08847105 81818,6917.859,95.437,540.82,538.627,0.0
54201.0,STARLINK-5199,PAYLOAD,2024-04-19 12:00:07,15.08855066,0.0001537,53.2166,208.0074,76.1339,283.9824,0.00049715,7.636e-05,0.0,0 STARLINK-5199,1 54201U 22141AW  24110.50008490  .00007636  00000-0  49715-3 0  9997,2 54201  53.2166 208.0074 0001537  76.1339 283.9824 15.08855066 81956,6917.834,95.437,540.763,538.636,0.0
54201.0,STARLINK-5199,PAYLOAD,2024-04-19 16:46:16,15.08870534,0.0001648,53.217,207.1117,104.5297,255.5878,0.00075152,0.00011703,0.0,0 STARLINK-5199,1 54201U 22141AW  24110.69879802  .00011703  00000-0  75152-3 0  9994,2 54201  53.2170 207.1117 0001648 104.5297 255.5878 15.08870534 82212,6917.787,95.436,540.792,538.512,0.0
54201.0,STARLINK-5199,PAYLOAD,2024-04-20 11:50:52,15.08869121,0.0001785,53.2174,203.5446,104.4506,255.6684,0.00062113,9.619e-05,0.0,0 STARLINK-5199,1 54201U 22141AW  24111.49366726  .00009619  00000-0  62113-3 0  9995,2 54201  53.2174 203.5446 0001785 104.4506 255.6684 15.08869121 82334,6917.791,95.436,540.891,538.422,0.0
54201.0,STARLINK-5199,PAYLOAD,2024-04-20 13:26:16,15.08805532,0.0001706,53.2168,203.2457,102.5917,257.5266,-0.0019834,-0.00031686,0.0,0 STARLINK-5199,1 54201U 22141AW  24111.55991537 -.00031686  00000-0 -19834-2 0  9998,2 54201  53.2168 203.2457 0001706 102.5917 257.5266 15.08805532 82113,6917.986,95.44,541.031,538.671,0.0
54201.0,STARLINK-5199,PAYLOAD,2024-04-21 13:17:06,15.08828231,0.0002355,53.2171,198.7869,57.7292,302.3928,0.002085,0.00033041,0.0,0 STARLINK-5199,1 54201U 22141AW  24112.55354240  .00033041  00000-0  20850-2 0  9998,2 54201  53.2171 198.7869 0002355  57.7292 302.3928 15.08828231 82261,6917.916,95.438,541.411,538.152,0.0
54201.0,STARLINK-5199,PAYLOAD,2024-04-21 14:52:28,15.08848852,0.0001789,53.2166,198.4907,73.8527,286.2662,0.0030408,0.00048451,0.0,0 STARLINK-5199,1 54201U 22141AW  24112.61977940  .00048451  00000-0  30408-2 0  9994,2 54201  53.2166 198.4907 0001789  73.8527 286.2662 15.08848852 82508,6917.853,95.437,540.956,538.481,0.0
54201.0,STARLINK-5199,PAYLOAD,2024-04-22 09:57:06,15.08866833,0.0001542,53.2163,194.9213,91.8514,268.2655,0.0026647,0.00042407,0.0,0 STARLINK-5199,1 54201U 22141AW  24113.41466058  .00042407  00000-0  26647-2 0  9991,2 54201  53.2163 194.9213 0001542  91.8514 268.2655 15.08866833 82623,6917.798,95.436,540.73,538.597,0.0
54201.0,STARLINK-5199,PAYLOAD,2024-04-22 13:07:52,15.08875551,0.0001535,53.2161,194.3274,82.7176,277.399,0.0026061,0.00041473,0.0,0 STARLINK-5199,1 54201U 22141AW  24113.54713829  .00041473  00000-0  26061-2 0  9998,2 54201  53.2161 194.3274 0001535  82.7176 277.3990 15.08875551 82414,6917.772,95.435,540.699,538.575,0.0
54201.0,STARLINK-5199,PAYLOAD,2024-04-23 05:01:43,15.08869292,0.0001571,53.2165,191.3544,108.5454,251.5709,0.0015008,0.00023697,0.0,0 STARLINK-5199,1 54201U 22141AW  24114.20953432  .00023697  00000-0  15008-2 0  9995,2 54201  53.2165 191.3544 0001571 108.5454 251.5709 15.08869292 82744,6917.791,95.436,540.743,538.569,0.0
54201.0,STARLINK-5199,PAYLOAD,2024-04-23 11:23:16,15.08869927,0.0001696,53.2165,190.1639,107.2139,252.9039,0.0016162,0.00025549,0.0,0 STARLINK-5199,1 54201U 22141AW  24114.47449152  .00025549  00000-0  16162-2 0  9993,2 54201  53.2165 190.1639 0001696 107.2139 252.9039 15.08869927 82555,6917.789,95.436,540.827,538.481,0.0
54201.0,STARLINK-5199,PAYLOAD,2024-04-24 04:52:30,15.08854331,0.0002058,53.2165,186.8945,108.0471,252.0746,0.0013861,0.00021849,0.0,0 STARLINK-5199,1 54201U 22141AW  24115.20313522  .00021849  00000-0  13861-2 0  9998,2 54201  53.2165 186.8945 0002058 108.0471 252.0746 15.08854331 82894,6917.837,95.437,541.125,538.278,0.0
54201.0,STARLINK-5199,PAYLOAD,2024-04-24 11:14:03,15.08842247,0.0001564,53.2164,185.7035,105.1916,254.925,0.00057796,8.923e-05,0.0,0 STARLINK-5199,1 54201U 22141AW  24115.46809574  .00008923  00000-0  57796-3 0  9997,2 54201  53.2164 185.7035 0001564 105.1916 254.9250 15.08842247 82933,6917.874,95.437,540.82,538.657,0.0
54201.0,STARLINK-5199,PAYLOAD,2024-04-25 11:04:50,15.08850301,0.0001569,53.2168,181.2448,105.8731,254.2434,0.00044537,6.809e-05,0.0,0 STARLINK-5199,1 54201U 22141AW  24116.46169319  .00006809  00000-0  44537-3 0  9994,2 54201  53.2168 181.2448 0001569 105.8731 254.2434 15.08850301 83087,6917.849,95.437,540.799,538.628,0.0
54201.0,STARLINK-5199,PAYLOAD,2024-04-26 10:55:36,15.08851621,0.0001744,53.2167,176.7899,110.6886,249.4293,0.00016422,2.327e-05,0.0,0 STARLINK-5199,1 54201U 22141AW  24117.45528587  .00002327  00000-0  16422-3 0  9993,2 54201  53.2167 176.7899 0001744 110.6886 249.4293 15.08851621 83237,6917.845,95.437,540.916,538.503,0.0
54201.0,STARLINK-5199,PAYLOAD,2024-04-26 14:06:22,15.08860108,0.0001282,53.2157,176.1877,91.6156,268.4983,0.00038008,5.77e-05,0.0,0 STARLINK-5199,1 54201U 22141AW  24117.58776431  .00005770  00000-0  38008-3 0  9999,2 54201  53.2157 176.1877 0001282  91.6156 268.4983 15.08860108 83025,6917.819,95.436,540.571,538.797,0.0
54201.0,STARLINK-5199,PAYLOAD,2024-04-27 10:46:23,15.08856321,0.0001683,53.2168,172.3262,104.5625,255.5554,0.00021631,3.158e-05,0.0,0 STARLINK-5199,1 54201U 22141AW  24118.44887924  .00003158  00000-0  21631-3 0  9997,2 54201  53.2168 172.3262 0001683 104.5625 255.5554 15.08856321 83150,6917.831,95.437,540.86,538.531,0.0
